0 THORAD AGENA D DEB
1 04759U 70025DH  13281.77013086  .00000443  00000-0  55873-3 0  8177
2 04759 099.9589 021.6796 0003600 193.0256 298.1767 13.70030668159977
0 THORAD AGENA D DEB
1 04759U 70025DH  13283.50871649  .00000455  00000-0  57221-3 0  8180
2 04759 099.9590 023.4775 0003639 190.5903 231.0887 13.70033848160210
0 THORAD AGENA D DEB
1 04759U 70025DH  13285.25446067  .00000429  00000-0  54209-3 0  8191
2 04759 099.9593 025.2827 0003662 187.3477 200.1127 13.70035355160452
0 THORAD AGENA D DEB
1 04759U 70025DH  13287.52556836  .00000551  00000-0  68143-3 0  8209
2 04759 099.9596 027.6313 0003698 183.0076 240.0755 13.70038392160766
0 THORAD AGENA D DEB
1 04759U 70025DH  13288.85339678  .00000599  00000-0  73528-3 0  8215
2 04759 099.9595 029.0044 0003719 182.0003 306.7329 13.70039746160946
0 THORAD AGENA D DEB
1 04759U 70025DH  13290.09390167  .00000608  00000-0  74557-3 0  8229
2 04759 099.9594 030.2874 0003701 180.8234 303.1044 13.70041721161114
0 THORAD AGENA D DEB
1 04759U 70025DH  13291.17771747  .00000648  00000-0  79192-3 0  8231
2 04759 099.9593 031.4083 0003700 179.3630 247.3522 13.70043628161264
0 THORAD AGENA D DEB
1 04759U 70025DH  13292.86912419  .00000684  00000-0  83246-3 0  8247
2 04759 099.9592 033.1577 0003666 177.5474 307.1494 13.70045769161493
0 THORAD AGENA D DEB
1 04759U 70025DH  13294.11001454  .00000683  00000-0  83170-3 0  8251
2 04759 099.9591 034.4412 0003650 175.8140 306.0019 13.70047468161666
0 THORAD AGENA D DEB
1 04759U 70025DH  13295.13199256  .00000693  00000-0  84244-3 0  8267
2 04759 099.9591 035.4981 0003644 174.1055 305.6785 13.70048567161800
